{
    "links": {
        "self": "http://www.neowsapp.com/rest/v1/neo/3363725?api_key=iIulBulltgU6a56xZRHN4H3l9WmuAYTsLGpBGhQ2"
    },
    "id": "3363725",
    "neo_reference_id": "3363725",
    "name": "(2006 YB)",
    "designation": "2006 YB",
    "nasa_jpl_url": "http://ssd.jpl.nasa.gov/sbdb.cgi?sstr=3363725",
    "absolute_magnitude_h": 24.1,
    "estimated_diameter": {
        "kilometers": {
            "estimated_diameter_min": 0.040230458,
            "estimated_diameter_max": 0.0899580388
        },
        "meters": {
            "estimated_diameter_min": 40.2304579834,
            "estimated_diameter_max": 89.9580388169
        },
        "miles": {
            "estimated_diameter_min": 0.0249980399,
            "estimated_diameter_max": 0.0558973165
        },
        "feet": {
            "estimated_diameter_min": 131.9896957704,
            "estimated_diameter_max": 295.1379320721
        }
    },
    "is_potentially_hazardous_asteroid": false,
    "close_approach_data": [
        {
            "close_approach_date": "2006-12-26",
            "close_approach_date_full": "2006-Dec-26 16:00",
            "epoch_date_close_approach": 1167148800000,
            "relative_velocity": {
                "kilometers_per_second": "8.5154736704",
                "kilometers_per_hour": "30655.7052133175",
                "miles_per_hour": "19048.2630532416"
            },
            "miss_distance": {
                "astronomical": "0.0816336602",
                "lunar": "31.7554938178",
                "kilometers": "12212221.686223774",
                "miles": "7588322.6806211212"
            },
            "orbiting_body": "Earth"
        }
    ],
    "orbital_data": {
        "orbit_id": "11",
        "orbit_determination_date": "2017-04-06 09:07:19",
        "first_observation_date": "2006-12-16",
        "last_observation_date": "2006-12-27",
        "data_arc_in_days": 11,
        "observations_used": 33,
        "orbit_uncertainty": "8",
        "minimum_orbit_intersection": ".0540036",
        "jupiter_tisserand_invariant": "3.597",
        "epoch_osculation": "2454090.5",
        "eccentricity": ".5114130364835677",
        "semi_major_axis": "2.067441434614154",
        "inclination": "4.424909498308527",
        "ascending_node_longitude": "75.55902125466473",
        "orbital_period": "1085.796033405255",
        "perihelion_distance": "1.010124932786186",
        "perihelion_argument": "44.75197645174633",
        "aphelion_distance": "3.124757936442122",
        "perihelion_time": "2454115.375755173406",
        "mean_anomaly": "351.7523442829859",
        "mean_motion": ".331553983367368",
        "equinox": "J2000",
        "orbit_class": {
            "orbit_class_type": "APO",
            "orbit_class_description": "Near-Earth asteroid orbits which cross the Earth’s orbit similar to that of 1862 Apollo",
            "orbit_class_range": "a (semi-major axis) > 1.0 AU; q (perihelion) < 1.017 AU"
        }
    },
    "is_sentry_object": false
}